GLOBALSTAR M094         
1 39074U 13005C   23341.48365450 -.00000102  00000+0  95277-5 0  9998
2 39074  51.9965  80.1578 0000932 120.8980 239.1979 12.62270199501961
GLOBALSTAR M096         
1 39075U 13005D   23340.62593233 -.00000084  00000+0  11143-3 0  9993
2 39075  52.0052 130.8485 0001354 106.7513 253.3502 12.62266851500751
GLOBALSTAR M078         
1 39076U 13005E   23341.07449484 -.00000127  00000+0 -13161-3 0  9993
2 39076  51.9864 214.7532 0001696  49.0763 311.0250 12.62264231499648
GLOBALSTAR M095         
1 39077U 13005F   23340.94252749 -.00000080  00000+0  13126-3 0  9993
2 39077  51.9783 212.6296 0001693  69.4828 290.6220 12.62271694499277
GLOBALSTAR M087         
1 52888U 22064A   23340.87448555 -.00000091  00000+0  71144-4 0  9994
2 52888  51.9737 162.4452 0008655 230.0954 129.9186 13.37559899 71650
